[{"OBJECT_NAME":"STARLINK-31510","OBJECT_ID":"2024-076M","EPOCH":"2026-01-12T05:00:34.583904","MEAN_MOTION":15.27543398,"ECCENTRICITY":0.00010135,"INCLINATION":43.001,"RA_OF_ASC_NODE":324.6124,"ARG_OF_PERICENTER":258.6913,"MEAN_ANOMALY":101.3824,"EPHEMERIS_TYPE":0,"CLASSIFICATION_TYPE":"U","NORAD_CAT_ID":59575,"ELEMENT_SET_NO":999,"REV_AT_EPOCH":9790,"BSTAR":-0.00010480464,"MEAN_MOTION_DOT":-3.141e-5,"MEAN_MOTION_DDOT":0},{"OBJECT_NAME":"STARLINK-31663","OBJECT_ID":"2024-076N","EPOCH":"2026-01-12T21:01:45.217920","MEAN_MOTION":15.27579748,"ECCENTRICITY":8.791e-5,"INCLINATION":42.9944,"RA_OF_ASC_NODE":324.4782,"ARG_OF_PERICENTER":64.7793,"MEAN_ANOMALY":295.3149,"EPHEMERIS_TYPE":0,"CLASSIFICATION_TYPE":"U","NORAD_CAT_ID":59576,"ELEMENT_SET_NO":999,"REV_AT_EPOCH":9796,"BSTAR":0.00011839192,"MEAN_MOTION_DOT":2.997e-5,"MEAN_MOTION_DDOT":0},{"OBJECT_NAME":"STARLINK-31692","OBJECT_ID":"2024-076P","EPOCH":"2026-01-12T20:43:15.796992","MEAN_MOTION":15.27567132,"ECCENTRICITY":0.00017309,"INCLINATION":43.0041,"RA_OF_ASC_NODE":324.347,"ARG_OF_PERICENTER":276.6222,"MEAN_ANOMALY":83.4433,"EPHEMERIS_TYPE":0,"CLASSIFICATION_TYPE":"U","NORAD_CAT_ID":59577,"ELEMENT_SET_NO":999,"REV_AT_EPOCH":9796,"BSTAR":-3.7983631e-5,"MEAN_MOTION_DOT":-1.307e-5,"MEAN_MOTION_DDOT":0},{"OBJECT_NAME":"STARLINK-31685","OBJECT_ID":"2024-076Q","EPOCH":"2026-01-12T21:27:29.257632","MEAN_MOTION":15.27553824,"ECCENTRICITY":0.00014539,"INCLINATION":43.0065,"RA_OF_ASC_NODE":323.7355,"ARG_OF_PERICENTER":282.79,"MEAN_ANOMALY":77.2789,"EPHEMERIS_TYPE":0,"CLASSIFICATION_TYPE":"U","NORAD_CAT_ID":59578,"ELEMENT_SET_NO":999,"REV_AT_EPOCH":9797,"BSTAR":-8.4049819e-5,"MEAN_MOTION_DOT":-2.572e-5,"MEAN_MOTION_DDOT":0},{"OBJECT_NAME":"STARLINK-31686","OBJECT_ID":"2024-076R","EPOCH":"2026-01-12T21:33:01.603872","MEAN_MOTION":15.27562206,"ECCENTRICITY":7.302e-5,"INCLINATION":43.0036,"RA_OF_ASC_NODE":323.7696,"ARG_OF_PERICENTER":268.4012,"MEAN_ANOMALY":91.6756,"EPHEMERIS_TYPE":0,"CLASSIFICATION_TYPE":"U","NORAD_CAT_ID":59579,"ELEMENT_SET_NO":999,"REV_AT_EPOCH":9797,"BSTAR":-0.00012429525,"MEAN_MOTION_DOT":-3.679e-5,"MEAN_MOTION_DDOT":0},{"OBJECT_NAME":"STARLINK-31668","OBJECT_ID":"2024-076S","EPOCH":"2026-01-12T21:16:24.640320","MEAN_MOTION":15.27545877,"ECCENTRICITY":9.723e-5,"INCLINATION":43.0012,"RA_OF_ASC_NODE":323.687,"ARG_OF_PERICENTER":304.8985,"MEAN_ANOMALY":55.1775,"EPHEMERIS_TYPE":0,"CLASSIFICATION_TYPE":"U","NORAD_CAT_ID":59580,"ELEMENT_SET_NO":999,"REV_AT_EPOCH":9797,"BSTAR":-0.00017059575,"MEAN_MOTION_DOT":-4.948e-5,"MEAN_MOTION_DDOT":0},{"OBJECT_NAME":"STARLINK-31690","OBJECT_ID":"2024-076T","EPOCH":"2026-01-12T21:47:49.322400","MEAN_MOTION":15.27587792,"ECCENTRICITY":8.529e-5,"INCLINATION":43.005,"RA_OF_ASC_NODE":323.8489,"ARG_OF_PERICENTER":267.1753,"MEAN_ANOMALY":92.9001,"EPHEMERIS_TYPE":0,"CLASSIFICATION_TYPE":"U","NORAD_CAT_ID":59581,"ELEMENT_SET_NO":999,"REV_AT_EPOCH":9798,"BSTAR":3.940208e-6,"MEAN_MOTION_DOT":-1.54e-6,"MEAN_MOTION_DDOT":0},{"OBJECT_NAME":"STARLINK-31701","OBJECT_ID":"2024-076U","EPOCH":"2026-01-12T20:35:54.447648","MEAN_MOTION":15.27682875,"ECCENTRICITY":7.532e-5,"INCLINATION":43.0043,"RA_OF_ASC_NODE":324.3338,"ARG_OF_PERICENTER":283.8356,"MEAN_ANOMALY":76.2412,"EPHEMERIS_TYPE":0,"CLASSIFICATION_TYPE":"U","NORAD_CAT_ID":59582,"ELEMENT_SET_NO":999,"REV_AT_EPOCH":9787,"BSTAR":0.0018960115,"MEAN_MOTION_DOT":0.00052448,"MEAN_MOTION_DDOT":0},{"OBJECT_NAME":"STARLINK-31697","OBJECT_ID":"2024-076V","EPOCH":"2026-01-12T21:58:54.942816","MEAN_MOTION":15.27576935,"ECCENTRICITY":0.00012304,"INCLINATION":43.0043,"RA_OF_ASC_NODE":323.9073,"ARG_OF_PERICENTER":267.1297,"MEAN_ANOMALY":92.9414,"EPHEMERIS_TYPE":0,"CLASSIFICATION_TYPE":"U","NORAD_CAT_ID":59583,"ELEMENT_SET_NO":999,"REV_AT_EPOCH":9788,"BSTAR":5.218572e-6,"MEAN_MOTION_DOT":-1.19e-6,"MEAN_MOTION_DDOT":0},{"OBJECT_NAME":"STARLINK-31662","OBJECT_ID":"2024-076W","EPOCH":"2026-01-12T06:37:40.387296","MEAN_MOTION":15.27589911,"ECCENTRICITY":0.00013814,"INCLINATION":43.0033,"RA_OF_ASC_NODE":327.7048,"ARG_OF_PERICENTER":258.4529,"MEAN_ANOMALY":101.6168,"EPHEMERIS_TYPE":0,"CLASSIFICATION_TYPE":"U","NORAD_CAT_ID":59584,"ELEMENT_SET_NO":999,"REV_AT_EPOCH":9787,"BSTAR":0.00016414992,"MEAN_MOTION_DOT":4.259e-5,"MEAN_MOTION_DDOT":0},{"OBJECT_NAME":"STARLINK-31702","OBJECT_ID":"2024-076X","EPOCH":"2026-01-12T22:43:19.897248","MEAN_MOTION":15.27562581,"ECCENTRICITY":0.00013884,"INCLINATION":43.0023,"RA_OF_ASC_NODE":324.1381,"ARG_OF_PERICENTER":289.0122,"MEAN_ANOMALY":71.058,"EPHEMERIS_TYPE":0,"CLASSIFICATION_TYPE":"U","NORAD_CAT_ID":59585,"ELEMENT_SET_NO":999,"REV_AT_EPOCH":9797,"BSTAR":2.3336002e-5,"MEAN_MOTION_DOT":3.8e-6,"MEAN_MOTION_DDOT":0},{"OBJECT_NAME":"STARLINK-31704","OBJECT_ID":"2024-076Y","EPOCH":"2026-01-12T18:58:07.414176","MEAN_MOTION":15.29029756,"ECCENTRICITY":0.00028509,"INCLINATION":43.0005,"RA_OF_ASC_NODE":281.0059,"ARG_OF_PERICENTER":249.3922,"MEAN_ANOMALY":110.6625,"EPHEMERIS_TYPE":0,"CLASSIFICATION_TYPE":"U","NORAD_CAT_ID":59586,"ELEMENT_SET_NO":999,"REV_AT_EPOCH":9844,"BSTAR":0.00033036612,"MEAN_MOTION_DOT":9.25e-5,"MEAN_MOTION_DDOT":0},{"OBJECT_NAME":"STARLINK-31770","OBJECT_ID":"2024-080A","EPOCH":"2026-01-12T05:22:18.838560","MEAN_MOTION":15.2758183,"ECCENTRICITY":0.0001769,"INCLINATION":43.0008,"RA_OF_ASC_NODE":357.0793,"ARG_OF_PERICENTER":274.6305,"MEAN_ANOMALY":85.4345,"EPHEMERIS_TYPE":0,"CLASSIFICATION_TYPE":"U","NORAD_CAT_ID":59601,"ELEMENT_SET_NO":999,"REV_AT_EPOCH":9710,"BSTAR":9.6134939e-5,"MEAN_MOTION_DOT":2.384e-5,"MEAN_MOTION_DDOT":0},{"OBJECT_NAME":"STARLINK-31778","OBJECT_ID":"2024-080B","EPOCH":"2026-01-12T00:42:23.415552","MEAN_MOTION":15.27574612,"ECCENTRICITY":0.00011285,"INCLINATION":43.0013,"RA_OF_ASC_NODE":354.7475,"ARG_OF_PERICENTER":274.0682,"MEAN_ANOMALY":86.004,"EPHEMERIS_TYPE":0,"CLASSIFICATION_TYPE":"U","NORAD_CAT_ID":59602,"ELEMENT_SET_NO":999,"REV_AT_EPOCH":9590,"BSTAR":0.00010795068,"MEAN_MOTION_DOT":2.709e-5,"MEAN_MOTION_DDOT":0},{"OBJECT_NAME":"STARLINK-31776","OBJECT_ID":"2024-080C","EPOCH":"2026-01-12T16:18:52.567776","MEAN_MOTION":15.27573207,"ECCENTRICITY":9.711e-5,"INCLINATION":43.0022,"RA_OF_ASC_NODE":357.9461,"ARG_OF_PERICENTER":241.6084,"MEAN_ANOMALY":118.467,"EPHEMERIS_TYPE":0,"CLASSIFICATION_TYPE":"U","NORAD_CAT_ID":59603,"ELEMENT_SET_NO":999,"REV_AT_EPOCH":9592,"BSTAR":4.7832255e-5,"MEAN_MOTION_DOT":1.054e-5,"MEAN_MOTION_DDOT":0},{"OBJECT_NAME":"STARLINK-31765","OBJECT_ID":"2024-080D","EPOCH":"2026-01-12T21:56:11.778144","MEAN_MOTION":15.27548819,"ECCENTRICITY":8.848e-5,"INCLINATION":43.0022,"RA_OF_ASC_NODE":349.3479,"ARG_OF_PERICENTER":335.199,"MEAN_ANOMALY":24.8819,"EPHEMERIS_TYPE":0,"CLASSIFICATION_TYPE":"U","NORAD_CAT_ID":59604,"ELEMENT_SET_NO":999,"REV_AT_EPOCH":9604,"BSTAR":-0.00033276704,"MEAN_MOTION_DOT":-9.398e-5,"MEAN_MOTION_DDOT":0},{"OBJECT_NAME":"STARLINK-31767","OBJECT_ID":"2024-080E","EPOCH":"2026-01-12T16:10:19.673184","MEAN_MOTION":15.27563312,"ECCENTRICITY":4.058e-5,"INCLINATION":43.0053,"RA_OF_ASC_NODE":354.4419,"ARG_OF_PERICENTER":323.1159,"MEAN_ANOMALY":36.9665,"EPHEMERIS_TYPE":0,"CLASSIFICATION_TYPE":"U","NORAD_CAT_ID":59605,"ELEMENT_SET_NO":999,"REV_AT_EPOCH":9596,"BSTAR":2.218685e-6,"MEAN_MOTION_DOT":-2.01e-6,"MEAN_MOTION_DDOT":0},{"OBJECT_NAME":"STARLINK-31782","OBJECT_ID":"2024-080F","EPOCH":"2026-01-12T22:50:17.756160","MEAN_MOTION":15.27577397,"ECCENTRICITY":0.00013131,"INCLINATION":43.0019,"RA_OF_ASC_NODE":356.538,"ARG_OF_PERICENTER":260.1808,"MEAN_ANOMALY":99.8895,"EPHEMERIS_TYPE":0,"CLASSIFICATION_TYPE":"U","NORAD_CAT_ID":59606,"ELEMENT_SET_NO":999,"REV_AT_EPOCH":9596,"BSTAR":1.2186028e-5,"MEAN_MOTION_DOT":7.3e-7,"MEAN_MOTION_DDOT":0},{"OBJECT_NAME":"STARLINK-31755","OBJECT_ID":"2024-080G","EPOCH":"2026-01-12T22:55:51.731040","MEAN_MOTION":15.27568146,"ECCENTRICITY":0.00013387,"INCLINATION":43.0057,"RA_OF_ASC_NODE":356.5757,"ARG_OF_PERICENTER":280.9795,"MEAN_ANOMALY":79.0906,"EPHEMERIS_TYPE":0,"CLASSIFICATION_TYPE":"U","NORAD_CAT_ID":59607,"ELEMENT_SET_NO":999,"REV_AT_EPOCH":9596,"BSTAR":-7.4168186e-5,"MEAN_MOTION_DOT":-2.302e-5,"MEAN_MOTION_DDOT":0},{"OBJECT_NAME":"STARLINK-31585","OBJECT_ID":"2024-080H","EPOCH":"2026-01-12T22:47:47.418432","MEAN_MOTION":15.27572338,"ECCENTRICITY":0.00019149,"INCLINATION":43.0082,"RA_OF_ASC_NODE":348.7534,"ARG_OF_PERICENTER":255.5318,"MEAN_ANOMALY":104.5321,"EPHEMERIS_TYPE":0,"CLASSIFICATION_TYPE":"U","NORAD_CAT_ID":59608,"ELEMENT_SET_NO":999,"REV_AT_EPOCH":9606,"BSTAR":-0.00011632006,"MEAN_MOTION_DOT":-3.461e-5,"MEAN_MOTION_DDOT":0},{"OBJECT_NAME":"STARLINK-31667","OBJECT_ID":"2024-080J","EPOCH":"2026-01-12T15:02:32.959104","MEAN_MOTION":15.27572889,"ECCENTRICITY":3.82e-5,"INCLINATION":43.0019,"RA_OF_ASC_NODE":350.6224,"ARG_OF_PERICENTER":41.2634,"MEAN_ANOMALY":318.8247,"EPHEMERIS_TYPE":0,"CLASSIFICATION_TYPE":"U","NORAD_CAT_ID":59609,"ELEMENT_SET_NO":999,"REV_AT_EPOCH":9600,"BSTAR":4.3491935e-5,"MEAN_MOTION_DOT":9.35e-6,"MEAN_MOTION_DDOT":0},{"OBJECT_NAME":"STARLINK-31729","OBJECT_ID":"2024-080K","EPOCH":"2026-01-12T22:33:10.631232","MEAN_MOTION":15.27589261,"ECCENTRICITY":0.00014885,"INCLINATION":43.0044,"RA_OF_ASC_NODE":349.5358,"ARG_OF_PERICENTER":255.2737,"MEAN_ANOMALY":104.795,"EPHEMERIS_TYPE":0,"CLASSIFICATION_TYPE":"U","NORAD_CAT_ID":59610,"ELEMENT_SET_NO":999,"REV_AT_EPOCH":9604,"BSTAR":0.00014648348,"MEAN_MOTION_DOT":3.772e-5,"MEAN_MOTION_DDOT":0},{"OBJECT_NAME":"STARLINK-31448","OBJECT_ID":"2024-080L","EPOCH":"2026-01-12T23:45:08.194752","MEAN_MOTION":15.27573388,"ECCENTRICITY":8.897e-5,"INCLINATION":43.0006,"RA_OF_ASC_NODE":349.0472,"ARG_OF_PERICENTER":251.0483,"MEAN_ANOMALY":109.0273,"EPHEMERIS_TYPE":0,"CLASSIFICATION_TYPE":"U","NORAD_CAT_ID":59611,"ELEMENT_SET_NO":999,"REV_AT_EPOCH":9605,"BSTAR":1.0077254e-5,"MEAN_MOTION_DOT":1.5e-7,"MEAN_MOTION_DDOT":0}]
